[{
    "OBJECT_NAME": "SHIYAN 11 (SY-11)",
    "OBJECT_ID": "2021-112A",
    "EPOCH": "2023-06-19T02:54:19.219392",
    "MEAN_MOTION": 15.30495829,
    "ECCENTRICITY": 0.0011478,
    "INCLINATION": 97.4377,
    "RA_OF_ASC_NODE": 183.5312,
    "ARG_OF_PERICENTER": 60.3998,
    "MEAN_ANOMALY": 299.8384,
    "EPHEMERIS_TYPE": 0,
    "CLASSIFICATION_TYPE": "U",
    "NORAD_CAT_ID": 49501,
    "ELEMENT_SET_NO": 999,
    "REV_AT_EPOCH": 8710,
    "BSTAR": 0.00035584,
    "MEAN_MOTION_DOT": 0.00010439,
    "MEAN_MOTION_DDOT": 0
},{
    "OBJECT_NAME": "COSMOS 2552",
    "OBJECT_ID": "2021-113A",
    "EPOCH": "2023-06-16T09:30:25.054848",
    "MEAN_MOTION": 2.00595055,
    "ECCENTRICITY": 0.6941678,
    "INCLINATION": 63.4313,
    "RA_OF_ASC_NODE": 322.4305,
    "ARG_OF_PERICENTER": 270.504,
    "MEAN_ANOMALY": 91.3424,
    "EPHEMERIS_TYPE": 0,
    "CLASSIFICATION_TYPE": "U",
    "NORAD_CAT_ID": 49503,
    "ELEMENT_SET_NO": 999,
    "REV_AT_EPOCH": 1140,
    "BSTAR": 0,
    "MEAN_MOTION_DOT": -1.09e-5,
    "MEAN_MOTION_DDOT": 0
},{
    "OBJECT_NAME": "CHINASAT 1D (ZX 1D)",
    "OBJECT_ID": "2021-114A",
    "EPOCH": "2023-06-19T00:51:52.618752",
    "MEAN_MOTION": 1.00270177,
    "ECCENTRICITY": 0.0001588,
    "INCLINATION": 0.5402,
    "RA_OF_ASC_NODE": 273.8072,
    "ARG_OF_PERICENTER": 259.4617,
    "MEAN_ANOMALY": 236.8594,
    "EPHEMERIS_TYPE": 0,
    "CLASSIFICATION_TYPE": "U",
    "NORAD_CAT_ID": 49505,
    "ELEMENT_SET_NO": 999,
    "REV_AT_EPOCH": 585,
    "BSTAR": 0,
    "MEAN_MOTION_DOT": -3.31e-6,
    "MEAN_MOTION_DDOT": 0
},{
    "OBJECT_NAME": "STARLINK-3219",
    "OBJECT_ID": "2021-115A",
    "EPOCH": "2023-06-18T18:32:05.659872",
    "MEAN_MOTION": 15.08845764,
    "ECCENTRICITY": 8.81e-5,
    "INCLINATION": 53.2176,
    "RA_OF_ASC_NODE": 295.478,
    "ARG_OF_PERICENTER": 98.5369,
    "MEAN_ANOMALY": 261.5723,
    "EPHEMERIS_TYPE": 0,
    "CLASSIFICATION_TYPE": "U",
    "NORAD_CAT_ID": 49724,
    "ELEMENT_SET_NO": 999,
    "REV_AT_EPOCH": 8533,
    "BSTAR": 8.9072e-5,
    "MEAN_MOTION_DOT": 1.13e-5,
    "MEAN_MOTION_DDOT": 0
},{
    "OBJECT_NAME": "STARLINK-3218",
    "OBJECT_ID": "2021-115B",
    "EPOCH": "2023-06-18T17:58:56.318880",
    "MEAN_MOTION": 15.0885227,
    "ECCENTRICITY": 9.97e-5,
    "INCLINATION": 53.217,
    "RA_OF_ASC_NODE": 295.6849,
    "ARG_OF_PERICENTER": 63.2719,
    "MEAN_ANOMALY": 296.8375,
    "EPHEMERIS_TYPE": 0,
    "CLASSIFICATION_TYPE": "U",
    "NORAD_CAT_ID": 49725,
    "ELEMENT_SET_NO": 999,
    "REV_AT_EPOCH": 8644,
    "BSTAR": 0.00043159,
    "MEAN_MOTION_DOT": 6.59e-5,
    "MEAN_MOTION_DDOT": 0
},{
    "OBJECT_NAME": "STARLINK-3237",
    "OBJECT_ID": "2021-115C",
    "EPOCH": "2023-06-18T18:24:06.411168",
    "MEAN_MOTION": 15.08848214,
    "ECCENTRICITY": 9.61e-5,
    "INCLINATION": 53.2166,
    "RA_OF_ASC_NODE": 305.5025,
    "ARG_OF_PERICENTER": 64.2742,
    "MEAN_ANOMALY": 295.8349,
    "EPHEMERIS_TYPE": 0,
    "CLASSIFICATION_TYPE": "U",
    "NORAD_CAT_ID": 49726,
    "ELEMENT_SET_NO": 999,
    "REV_AT_EPOCH": 8519,
    "BSTAR": 0.0010664,
    "MEAN_MOTION_DOT": 0.00016728,
    "MEAN_MOTION_DDOT": 0
},{
    "OBJECT_NAME": "STARLINK-3242",
    "OBJECT_ID": "2021-115D",
    "EPOCH": "2023-06-18T15:18:37.546848",
    "MEAN_MOTION": 15.08843791,
    "ECCENTRICITY": 0.0001057,
    "INCLINATION": 53.2172,
    "RA_OF_ASC_NODE": 306.0802,
    "ARG_OF_PERICENTER": 67.9792,
    "MEAN_ANOMALY": 292.1312,
    "EPHEMERIS_TYPE": 0,
    "CLASSIFICATION_TYPE": "U",
    "NORAD_CAT_ID": 49727,
    "ELEMENT_SET_NO": 999,
    "REV_AT_EPOCH": 8517,
    "BSTAR": 0.00017956,
    "MEAN_MOTION_DOT": 2.571e-5,
    "MEAN_MOTION_DDOT": 0
},{
    "OBJECT_NAME": "STARLINK-3240",
    "OBJECT_ID": "2021-115E",
    "EPOCH": "2023-06-18T15:23:55.606848",
    "MEAN_MOTION": 15.08841616,
    "ECCENTRICITY": 0.0001071,
    "INCLINATION": 53.2172,
    "RA_OF_ASC_NODE": 306.0665,
    "ARG_OF_PERICENTER": 71.599,
    "MEAN_ANOMALY": 288.5119,
    "EPHEMERIS_TYPE": 0,
    "CLASSIFICATION_TYPE": "U",
    "NORAD_CAT_ID": 49728,
    "ELEMENT_SET_NO": 999,
    "REV_AT_EPOCH": 8517,
    "BSTAR": 0.00012464,
    "MEAN_MOTION_DOT": 1.696e-5,
    "MEAN_MOTION_DDOT": 0
},{
    "OBJECT_NAME": "STARLINK-3251",
    "OBJECT_ID": "2021-115F",
    "EPOCH": "2023-06-18T18:41:22.142400",
    "MEAN_MOTION": 15.08842555,
    "ECCENTRICITY": 0.0001003,
    "INCLINATION": 53.2173,
    "RA_OF_ASC_NODE": 305.4592,
    "ARG_OF_PERICENTER": 93.6177,
    "MEAN_ANOMALY": 266.493,
    "EPHEMERIS_TYPE": 0,
    "CLASSIFICATION_TYPE": "U",
    "NORAD_CAT_ID": 49729,
    "ELEMENT_SET_NO": 999,
    "REV_AT_EPOCH": 8519,
    "BSTAR": -5.0687e-5,
    "MEAN_MOTION_DOT": -1.094e-5,
    "MEAN_MOTION_DDOT": 0
},{
    "OBJECT_NAME": "STARLINK-3249",
    "OBJECT_ID": "2021-115G",
    "EPOCH": "2023-06-18T18:51:57.858912",
    "MEAN_MOTION": 15.0885137,
    "ECCENTRICITY": 0.0001153,
    "INCLINATION": 53.217,
    "RA_OF_ASC_NODE": 305.423,
    "ARG_OF_PERICENTER": 74.7022,
    "MEAN_ANOMALY": 285.4097,
    "EPHEMERIS_TYPE": 0,
    "CLASSIFICATION_TYPE": "U",
    "NORAD_CAT_ID": 49730,
    "ELEMENT_SET_NO": 999,
    "REV_AT_EPOCH": 8519,
    "BSTAR": 0.00018602,
    "MEAN_MOTION_DOT": 2.675e-5,
    "MEAN_MOTION_DDOT": 0
},{
    "OBJECT_NAME": "STARLINK-3228",
    "OBJECT_ID": "2021-115H",
    "EPOCH": "2023-06-18T18:45:17.737920",
    "MEAN_MOTION": 15.08863406,
    "ECCENTRICITY": 0.0001104,
    "INCLINATION": 53.2165,
    "RA_OF_ASC_NODE": 305.4349,
    "ARG_OF_PERICENTER": 53.7138,
    "MEAN_ANOMALY": 306.3956,
    "EPHEMERIS_TYPE": 0,
    "CLASSIFICATION_TYPE": "U",
    "NORAD_CAT_ID": 49731,
    "ELEMENT_SET_NO": 999,
    "REV_AT_EPOCH": 8519,
    "BSTAR": 0.0013585,
    "MEAN_MOTION_DOT": 0.00021412,
    "MEAN_MOTION_DDOT": 0
},{
    "OBJECT_NAME": "STARLINK-3246",
    "OBJECT_ID": "2021-115J",
    "EPOCH": "2023-06-18T19:02:34.452384",
    "MEAN_MOTION": 15.08838878,
    "ECCENTRICITY": 9.26e-5,
    "INCLINATION": 53.2168,
    "RA_OF_ASC_NODE": 305.3533,
    "ARG_OF_PERICENTER": 97.6421,
    "MEAN_ANOMALY": 262.4676,
    "EPHEMERIS_TYPE": 0,
    "CLASSIFICATION_TYPE": "U",
    "NORAD_CAT_ID": 49732,
    "ELEMENT_SET_NO": 999,
    "REV_AT_EPOCH": 8519,
    "BSTAR": 0.00024234,
    "MEAN_MOTION_DOT": 3.571e-5,
    "MEAN_MOTION_DDOT": 0
},{
    "OBJECT_NAME": "STARLINK-3252",
    "OBJECT_ID": "2021-115K",
    "EPOCH": "2023-06-18T18:55:52.851360",
    "MEAN_MOTION": 15.08852326,
    "ECCENTRICITY": 0.0001122,
    "INCLINATION": 53.2175,
    "RA_OF_ASC_NODE": 305.4062,
    "ARG_OF_PERICENTER": 109.3533,
    "MEAN_ANOMALY": 250.7581,
    "EPHEMERIS_TYPE": 0,
    "CLASSIFICATION_TYPE": "U",
    "NORAD_CAT_ID": 49733,
    "ELEMENT_SET_NO": 999,
    "REV_AT_EPOCH": 8630,
    "BSTAR": 0.00020333,
    "MEAN_MOTION_DOT": 2.951e-5,
    "MEAN_MOTION_DDOT": 0
},{
    "OBJECT_NAME": "STARLINK-3238",
    "OBJECT_ID": "2021-115L",
    "EPOCH": "2023-06-18T17:48:20.067552",
    "MEAN_MOTION": 15.08844261,
    "ECCENTRICITY": 0.0001101,
    "INCLINATION": 53.2168,
    "RA_OF_ASC_NODE": 295.6418,
    "ARG_OF_PERICENTER": 69.2892,
    "MEAN_ANOMALY": 290.8218,
    "EPHEMERIS_TYPE": 0,
    "CLASSIFICATION_TYPE": "U",
    "NORAD_CAT_ID": 49734,
    "ELEMENT_SET_NO": 999,
    "REV_AT_EPOCH": 8533,
    "BSTAR": 0.00033144,
    "MEAN_MOTION_DOT": 4.992e-5,
    "MEAN_MOTION_DDOT": 0
},{
    "OBJECT_NAME": "STARLINK-3113",
    "OBJECT_ID": "2021-115M",
    "EPOCH": "2023-06-18T15:46:29.191584",
    "MEAN_MOTION": 15.08848192,
    "ECCENTRICITY": 0.0001005,
    "INCLINATION": 53.2175,
    "RA_OF_ASC_NODE": 305.9645,
    "ARG_OF_PERICENTER": 64.1,
    "MEAN_ANOMALY": 296.0096,
    "EPHEMERIS_TYPE": 0,
    "CLASSIFICATION_TYPE": "U",
    "NORAD_CAT_ID": 49735,
    "ELEMENT_SET_NO": 999,
    "REV_AT_EPOCH": 8517,
    "BSTAR": 0.00019287,
    "MEAN_MOTION_DOT": 2.784e-5,
    "MEAN_MOTION_DDOT": 0
},{
    "OBJECT_NAME": "STARLINK-3148",
    "OBJECT_ID": "2021-115N",
    "EPOCH": "2023-06-18T14:49:33.287232",
    "MEAN_MOTION": 15.08839547,
    "ECCENTRICITY": 7.64e-5,
    "INCLINATION": 53.2166,
    "RA_OF_ASC_NODE": 296.1806,
    "ARG_OF_PERICENTER": 107.0026,
    "MEAN_ANOMALY": 253.105,
    "EPHEMERIS_TYPE": 0,
    "CLASSIFICATION_TYPE": "U",
    "NORAD_CAT_ID": 49736,
    "ELEMENT_SET_NO": 999,
    "REV_AT_EPOCH": 8531,
    "BSTAR": 0.0011863,
    "MEAN_MOTION_DOT": 0.00018642,
    "MEAN_MOTION_DDOT": 0
},{
    "OBJECT_NAME": "STARLINK-3225",
    "OBJECT_ID": "2021-115P",
    "EPOCH": "2023-06-19T01:50:33.519840",
    "MEAN_MOTION": 15.08850034,
    "ECCENTRICITY": 0.0001238,
    "INCLINATION": 53.2173,
    "RA_OF_ASC_NODE": 294.11,
    "ARG_OF_PERICENTER": 89.4227,
    "MEAN_ANOMALY": 270.6907,
    "EPHEMERIS_TYPE": 0,
    "CLASSIFICATION_TYPE": "U",
    "NORAD_CAT_ID": 49737,
    "ELEMENT_SET_NO": 999,
    "REV_AT_EPOCH": 8649,
    "BSTAR": 0.00090801,
    "MEAN_MOTION_DOT": 0.00014196,
    "MEAN_MOTION_DDOT": 0
},{
    "OBJECT_NAME": "STARLINK-3143",
    "OBJECT_ID": "2021-115Q",
    "EPOCH": "2023-06-19T02:01:09.084288",
    "MEAN_MOTION": 15.0885748,
    "ECCENTRICITY": 0.0001229,
    "INCLINATION": 53.2168,
    "RA_OF_ASC_NODE": 294.0755,
    "ARG_OF_PERICENTER": 60.6004,
    "MEAN_ANOMALY": 299.511,
    "EPHEMERIS_TYPE": 0,
    "CLASSIFICATION_TYPE": "U",
    "NORAD_CAT_ID": 49738,
    "ELEMENT_SET_NO": 999,
    "REV_AT_EPOCH": 8649,
    "BSTAR": 0.00085655,
    "MEAN_MOTION_DOT": 0.00013377,
    "MEAN_MOTION_DDOT": 0
},{
    "OBJECT_NAME": "STARLINK-3155",
    "OBJECT_ID": "2021-115R",
    "EPOCH": "2023-06-19T01:33:19.555488",
    "MEAN_MOTION": 15.08870345,
    "ECCENTRICITY": 9.2e-5,
    "INCLINATION": 53.2178,
    "RA_OF_ASC_NODE": 304.1643,
    "ARG_OF_PERICENTER": 102.8555,
    "MEAN_ANOMALY": 257.254,
    "EPHEMERIS_TYPE": 0,
    "CLASSIFICATION_TYPE": "U",
    "NORAD_CAT_ID": 49739,
    "ELEMENT_SET_NO": 999,
    "REV_AT_EPOCH": 8634,
    "BSTAR": 0.0012129,
    "MEAN_MOTION_DOT": 0.00019084,
    "MEAN_MOTION_DDOT": 0
}]